STARLINK-2701           
1 48656U 21044U   26068.41633844  .00011640  00000+0  40422-3 0  9991
2 48656  53.1590 115.1314 0001512 109.2317 250.8847 15.30223298263787
STARLINK-30494          
1 57970U 23151G   26068.36049035 -.00001272  00000+0 -35691-4 0  9993
2 57970  43.0027 192.4566 0001155 241.5536 118.5200 15.28417441137406
